STARLINK-1800_new
1 16700C 20073AG  21326.14131243  .00002778  00000-0  18616-3 0  3265
2 16700  53.0514  98.1068 0001454  78.1835 210.8679 15.06390052    10
STARLINK-1800_old
1 26700C 20073AG  21325.14600369  .00001208  00000-0  80958-4 0  3259
2 26700  53.0514 102.5747 0001473  78.5991 209.9108 15.06384246    16
